{"type":"FeatureCollection","features":[{"type":"Feature","properties":{"start":363,"end":327,"count":21,"estimated":true},"geometry":{"type":"LineString","coordinates":[[-74.017163,40.708306],[-74.017304,40.708363],[-74.017337,40.708385],[-74.017398,40.708457],[-74.01733,40.708549],[-74.017306,40.708582],[-74.016998,40.70901],[-74.016951,40.709073],[-74.016926,40.709106],[-74.016794,40.709293],[-74.016765,40.709336],[-74.016726,40.709394],[-74.016661,40.709491],[-74.016557,40.709675],[-74.016466,40.70986],[-74.016406,40.710008],[-74.016374,40.71009],[-74.016244,40.710061],[-74.015821,40.709965],[-74.015803,40.709961],[-74.015342,40.70986],[-74.015281,40.70985],[-74.015209,40.709839],[-74.01518,40.70991],[-74.015177,40.709925],[-74.015176,40.709942],[-74.015176,40.709952],[-74.015177,40.709983],[-74.01518,40.710066],[-74.01518,40.710109],[-74.015177,40.710144],[-74.01517,40.710191],[-74.015161,40.710229],[-74.015141,40.710294],[-74.015104,40.710404],[-74.01509,40.710444],[-74.015076,40.710484],[-74.015046,40.71058],[-74.015015,40.710688],[-74.015003,40.710722],[-74.01498,40.71077],[-74.01495,40.710822],[-74.014934,40.710851],[-74.014911,40.710896],[-74.014891,40.710937],[-74.014882,40.710956],[-74.01486,40.71101],[-74.014855,40.711023],[-74.014845,40.711047],[-74.014833,40.711084],[-74.014814,40.71118],[-74.014798,40.711263],[-74.014782,40.711336],[-74.014771,40.711381],[-74.014693,40.71174],[-74.01469,40.71176],[-74.014688,40.711782],[-74.014689,40.711803],[-74.014695,40.71185],[-74.014696,40.711868],[-74.014693,40.711897],[-74.014688,40.711922],[-74.014663,40.71202],[-74.014654,40.712054],[-74.014645,40.712085],[-74.014552,40.71245],[-74.014549,40.712461],[-74.014541,40.712492],[-74.014521,40.71257],[-74.014503,40.712639],[-74.014493,40.712671],[-74.014366,40.713102],[-74.014349,40.713159],[-74.014336,40.713202],[-74.014332,40.713218],[-74.014319,40.713255],[-74.014302,40.713296],[-74.014284,40.713335],[-74.014238,40.713408],[-74.014212,40.713453],[-74.014191,40.713497],[-74.014177,40.71353],[-74.014167,40.713565],[-74.014158,40.713609],[-74.014154,40.713642],[-74.014152,40.713675],[-74.014147,40.713702],[-74.014142,40.713719],[-74.014131,40.713754],[-74.014117,40.713799],[-74.014098,40.713858],[-74.014168,40.713888],[-74.014427,40.714004],[-74.014974,40.714249],[-74.015109,40.714309],[-74.016015,40.714709],[-74.016055,40.714727],[-74.016183,40.714789],[-74.016147,40.714843],[-74.01611,40.714899],[-74.016044,40.714991],[-74.015948,40.715117],[-74.016085,40.71518],[-74.016135,40.715202],[-74.016547,40.715386]]}},{"type":"Feature","properties":{"start":519,"end":528,"count":21,"estimated":true},"geometry":{"type":"LineString","coordinates":[[-73.978376,40.752419],[-73.978382,40.752411],[-73.978244,40.752354],[-73.977814,40.752174],[-73.977673,40.752115],[-73.977536,40.752059],[-73.977482,40.752036],[-73.977368,40.751989],[-73.976572,40.751658],[-73.976216,40.751507],[-73.976154,40.751481],[-73.976055,40.751439],[-73.975948,40.751394],[-73.975898,40.751372],[-73.974647,40.750845],[-73.974591,40.750821],[-73.974474,40.750773],[-73.974313,40.750706],[-73.974282,40.750693],[-73.973858,40.750522],[-73.973603,40.750418],[-73.97349,40.750371],[-73.973034,40.75018],[-73.97241,40.749924],[-73.972347,40.749897],[-73.9722,40.749833],[-73.972278,40.749729],[-73.972352,40.74963],[-73.972426,40.749531],[-73.972503,40.749429],[-73.972658,40.749221],[-73.972701,40.749164],[-73.972746,40.749102],[-73.972995,40.74876],[-73.973106,40.748606],[-73.973147,40.748548],[-73.973192,40.748487],[-73.973251,40.748406],[-73.973498,40.748064],[-73.973555,40.747986],[-73.973591,40.747935],[-73.973642,40.747865],[-73.973844,40.747587],[-73.974002,40.747368],[-73.974055,40.747295],[-73.974089,40.747247],[-73.974447,40.746753],[-73.974496,40.746685],[-73.974543,40.746622],[-73.974553,40.746607],[-73.974697,40.746408],[-73.974745,40.746344],[-73.974844,40.746209],[-73.974883,40.746156],[-73.974939,40.74608],[-73.974993,40.746007],[-73.97514,40.745808],[-73.975259,40.745646],[-73.97535,40.745522],[-73.975399,40.745455],[-73.975447,40.74539],[-73.975611,40.745167],[-73.975822,40.744881],[-73.975888,40.744792],[-73.975962,40.74469],[-73.976072,40.744538],[-73.97621,40.744349],[-73.976335,40.744179],[-73.976385,40.744111],[-73.976431,40.744048],[-73.976507,40.743942],[-73.976484,40.743771],[-73.976458,40.743741],[-73.976432,40.743713],[-73.976447,40.743668],[-73.976557,40.74352],[-73.976585,40.743484],[-73.976667,40.743372],[-73.977019,40.742885],[-73.977037,40.742861],[-73.977082,40.742879]]}},{"type":"Feature","properties":{"start":318,"end":492,"count":18,"estimated":true},"geometry":{"type":"LineString","coordinates":[[-73.977973,40.75322],[-73.977928,40.753201],[-73.977938,40.753187],[-73.977961,40.753146],[-73.978329,40.753301],[-73.978677,40.753446],[-73.978776,40.753486],[-73.978891,40.753533],[-73.980274,40.754116],[-73.980392,40.754166],[-73.980436,40.754102],[-73.980809,40.753577],[-73.980879,40.753481],[-73.980945,40.753394],[-73.981132,40.753145],[-73.981326,40.752889],[-73.98138,40.752816],[-73.981418,40.752765],[-73.981777,40.752269],[-73.981824,40.752205],[-73.981868,40.752143],[-73.982195,40.751693],[-73.982227,40.751649],[-73.982276,40.751581],[-73.982316,40.751526],[-73.982674,40.751032],[-73.982727,40.75096],[-73.982774,40.750895],[-73.983123,40.750414],[-73.983175,40.750342],[-73.983226,40.75027],[-73.983575,40.749786],[-73.983617,40.749728],[-73.983665,40.749662],[-73.984028,40.749163],[-73.984071,40.749105],[-73.984108,40.749053],[-73.984488,40.74853],[-73.984546,40.748454],[-73.984618,40.748352],[-73.984995,40.747833],[-73.985038,40.747774],[-73.985172,40.747831],[-73.987936,40.748996],[-73.988017,40.74903],[-73.988235,40.749122],[-73.988392,40.749189],[-73.990499,40.750087],[-73.990981,40.750294],[-73.990994,40.750235],[-73.99101,40.750212],[-73.991002,40.750208],[-73.990943,40.750183]]}},{"type":"Feature","properties":{"start":519,"end":477,"count":17,"estimated":true},"geometry":{"type":"LineString","coordinates":[[-73.978376,40.752419],[-73.978382,40.752411],[-73.978521,40.752468],[-73.978599,40.752501],[-73.978656,40.752528],[-73.978711,40.752555],[-73.978843,40.752618],[-73.978905,40.752647],[-73.978957,40.752671],[-73.979007,40.752694],[-73.97918,40.752765],[-73.979287,40.752813],[-73.979386,40.752856],[-73.980333,40.753257],[-73.980759,40.753435],[-73.980879,40.753481],[-73.981022,40.753534],[-73.982411,40.754123],[-73.983634,40.754639],[-73.983984,40.754786],[-73.984118,40.754842],[-73.984262,40.754903],[-73.985601,40.755471],[-73.985919,40.755605],[-73.986031,40.755653],[-73.986289,40.755762],[-73.986425,40.755819],[-73.986509,40.755854],[-73.986831,40.755988],[-73.986949,40.756036],[-73.987015,40.755949],[-73.987402,40.755433],[-73.987447,40.755373],[-73.987537,40.755411],[-73.988444,40.755794],[-73.988541,40.755835],[-73.990137,40.756508],[-73.99018,40.756451],[-73.990037,40.756391]]}},{"type":"Feature","properties":{"start":327,"end":329,"count":17,"estimated":true},"geometry":{"type":"LineString","coordinates":[[-74.016547,40.715386],[-74.016135,40.715202],[-74.016085,40.71518],[-74.015948,40.715117],[-74.015646,40.715509],[-74.015597,40.715569],[-74.015491,40.715698],[-74.015432,40.71577],[-74.015383,40.71583],[-74.015306,40.715928],[-74.015265,40.71598],[-74.015232,40.715995],[-74.015192,40.716006],[-74.01515,40.716013],[-74.015107,40.716023],[-74.015073,40.716037],[-74.015049,40.716052],[-74.015021,40.716076],[-74.014795,40.716368],[-74.014777,40.716389],[-74.014346,40.716936],[-74.014298,40.716999],[-74.014251,40.717063],[-74.013894,40.717523],[-74.013871,40.717553],[-74.013819,40.717619],[-74.013226,40.717349],[-74.013167,40.717322],[-74.013152,40.717384],[-74.013139,40.717447],[-74.013134,40.717471],[-74.012945,40.718227],[-74.012883,40.718491],[-74.012868,40.718549],[-74.012852,40.718592],[-74.01283,40.718635],[-74.012811,40.718673],[-74.01279,40.718717],[-74.012776,40.718767],[-74.012727,40.71898],[-74.012673,40.71921],[-74.012653,40.719305],[-74.012644,40.719351],[-74.012638,40.719395],[-74.012617,40.719609],[-74.012609,40.719667],[-74.0126,40.719718],[-74.012477,40.720248],[-74.012444,40.720244],[-74.012426,40.720242],[-74.012367,40.720234],[-74.012306,40.720226],[-74.012241,40.720219],[-74.012156,40.720208],[-74.012078,40.720199],[-74.011981,40.720186],[-74.011967,40.720185],[-74.011953,40.720185],[-74.011935,40.720189],[-74.011921,40.720193],[-74.011905,40.720197],[-74.011887,40.7202],[-74.011867,40.7202],[-74.011734,40.720187],[-74.011653,40.720179],[-74.011011,40.720118],[-74.010243,40.720044],[-74.010239,40.720066],[-74.010227,40.720136],[-74.010215,40.720207],[-74.010213,40.720225],[-74.010213,40.720238],[-74.010217,40.720259],[-74.010234,40.720305],[-74.010237,40.720335],[-74.01022,40.720435]]}},{"type":"Feature","properties":{"start":281,"end":499,"count":17,"estimated":true},"geometry":{"type":"LineString","coordinates":[[-73.973711,40.764395],[-73.973665,40.764458],[-73.973692,40.764472],[-73.973727,40.76449],[-73.97376,40.764508],[-73.973784,40.764521],[-73.973814,40.764534],[-73.973802,40.764553],[-73.973791,40.764576],[-73.973764,40.764633],[-73.973825,40.764665],[-73.976125,40.76563],[-73.976244,40.76568],[-73.976375,40.765735],[-73.976421,40.765755],[-73.97672,40.765881],[-73.976788,40.765909],[-73.977098,40.766041],[-73.977643,40.766271],[-73.978948,40.766825],[-73.979076,40.766876],[-73.979191,40.766925],[-73.979601,40.767098],[-73.980785,40.767599],[-73.981148,40.767812],[-73.981208,40.76784],[-73.981235,40.767857],[-73.98126,40.767877],[-73.981281,40.767905],[-73.981293,40.767929],[-73.9813,40.767943],[-73.981326,40.767988],[-73.981395,40.768104],[-73.9814,40.768126],[-73.981407,40.76815],[-73.981414,40.768168],[-73.981422,40.768187],[-73.981445,40.768225],[-73.981474,40.768263],[-73.981512,40.768301],[-73.981538,40.768322],[-73.981586,40.768354],[-73.981644,40.768383],[-73.981679,40.768399],[-73.981891,40.768504],[-73.981926,40.768524],[-73.981953,40.768544],[-73.981963,40.768553],[-73.981972,40.768564],[-73.981903,40.768625],[-73.98184,40.768682],[-73.98185,40.768692],[-73.981855,40.768704],[-73.981858,40.768718],[-73.98186,40.768741],[-73.981862,40.768824],[-73.981866,40.768937],[-73.981872,40.769156]]}},{"type":"Feature","properties":{"start":304,"end":3002,"count":16,"estimated":true},"geometry":{"type":"LineString","coordinates":[[-74.01362,40.704583],[-74.01374,40.704588],[-74.013922,40.704596],[-74.014103,40.704603],[-74.014108,40.704592],[-74.014113,40.70458],[-74.014115,40.70457],[-74.014116,40.704554],[-74.014158,40.704543],[-74.014254,40.704519],[-74.014352,40.704493],[-74.014389,40.704479],[-74.014414,40.704506],[-74.014444,40.704522],[-74.014466,40.70453],[-74.014494,40.704539],[-74.01454,40.70455],[-74.01462,40.704567],[-74.01471,40.704585],[-74.014914,40.704629],[-74.014925,40.704608],[-74.014947,40.704584],[-74.014995,40.704551],[-74.015046,40.704524],[-74.015139,40.704558],[-74.015261,40.704587],[-74.015319,40.704596],[-74.015382,40.704603],[-74.01551,40.704606],[-74.015553,40.704608],[-74.015575,40.704609],[-74.01561,40.704611],[-74.015635,40.704612],[-74.01567,40.704615],[-74.015751,40.704629],[-74.015836,40.70464],[-74.015892,40.704646],[-74.015934,40.704648],[-74.015974,40.704646],[-74.016019,40.704641],[-74.016087,40.704627],[-74.016148,40.704617],[-74.016196,40.704612],[-74.016245,40.70461],[-74.016288,40.704612],[-74.016326,40.704617],[-74.016364,40.704624],[-74.016403,40.70463],[-74.016449,40.704633],[-74.016502,40.704634],[-74.016577,40.704633],[-74.01678,40.704629],[-74.016812,40.70463],[-74.016848,40.704631],[-74.017007,40.704641],[-74.017029,40.704647],[-74.01705,40.704655],[-74.017068,40.704668],[-74.017081,40.704684],[-74.017087,40.704699],[-74.017086,40.704715],[-74.017079,40.704737],[-74.01706,40.704785],[-74.017036,40.704843],[-74.017013,40.7049],[-74.017,40.704954],[-74.016995,40.704975],[-74.016989,40.704993],[-74.016907,40.705196],[-74.016741,40.705627],[-74.016725,40.705667],[-74.016658,40.705837],[-74.016614,40.705947],[-74.016467,40.70633],[-74.016463,40.706345],[-74.016459,40.706359],[-74.016427,40.706488],[-74.01642,40.706517],[-74.016407,40.706569],[-74.016389,40.706632],[-74.016372,40.70668],[-74.01636,40.706716],[-74.016257,40.706988],[-74.016224,40.70706],[-74.016177,40.707146],[-74.016104,40.707272],[-74.016071,40.707341],[-74.015976,40.707593],[-74.015944,40.707674],[-74.015941,40.707682],[-74.015933,40.707704],[-74.015922,40.70773],[-74.01592,40.707734],[-74.015897,40.707797],[-74.015873,40.707859],[-74.015865,40.707881],[-74.015861,40.70789],[-74.01584,40.707947],[-74.015436,40.709038],[-74.015357,40.709272],[-74.015322,40.709406],[-74.015258,40.709668],[-74.015242,40.709731],[-74.015238,40.709752],[-74.015229,40.709787],[-74.015209,40.709839],[-74.01518,40.70991],[-74.015177,40.709925],[-74.015176,40.709942],[-74.015176,40.709952],[-74.015177,40.709983],[-74.01518,40.710066],[-74.01518,40.710109],[-74.015177,40.710144],[-74.01517,40.710191],[-74.015161,40.710229],[-74.015141,40.710294],[-74.015104,40.710404],[-74.01509,40.710444],[-74.015076,40.710484],[-74.015046,40.71058],[-74.015015,40.710688],[-74.015003,40.710722],[-74.01498,40.71077],[-74.01495,40.710822],[-74.014934,40.710851],[-74.014911,40.710896],[-74.014891,40.710937],[-74.014882,40.710956],[-74.01486,40.71101],[-74.014855,40.711023],[-74.014845,40.711047],[-74.014833,40.711084],[-74.014814,40.71118],[-74.014888,40.711209],[-74.015163,40.711324],[-74.015628,40.711517],[-74.015784,40.711584],[-74.015814,40.71153]]}},{"type":"Feature","properties":{"start":294,"end":382,"count":16,"estimated":true},"geometry":{"type":"LineString","coordinates":[[-73.995713,40.73049],[-73.995584,40.730643],[-73.995578,40.730645],[-73.995567,40.730646],[-73.995556,40.730643],[-73.99554,40.730635],[-73.995531,40.730646],[-73.995483,40.730678],[-73.995432,40.730712],[-73.995419,40.730725],[-73.995441,40.730737],[-73.995513,40.730772],[-73.995134,40.731214],[-73.994884,40.731506],[-73.994841,40.731557],[-73.994804,40.731602],[-73.99476,40.731655],[-73.9944,40.73209],[-73.994371,40.732125],[-73.994309,40.732184],[-73.994261,40.732229],[-73.993902,40.732641],[-73.993864,40.732684],[-73.993817,40.732732],[-73.993765,40.732788],[-73.99336,40.733259],[-73.993322,40.733304],[-73.993276,40.733358],[-73.992835,40.733872],[-73.992792,40.733922],[-73.992744,40.733976],[-73.992299,40.73448],[-73.992255,40.734529],[-73.992358,40.734572],[-73.992324,40.734611],[-73.992305,40.734611],[-73.992291,40.734616],[-73.992275,40.734628],[-73.992049,40.73489],[-73.992014,40.734931]]}},{"type":"Feature","properties":{"start":497,"end":379,"count":16,"estimated":true},"geometry":{"type":"LineString","coordinates":[[-73.990074,40.737077],[-73.990198,40.737128],[-73.990266,40.737166],[-73.990307,40.737185],[-73.990165,40.737746],[-73.990139,40.737805],[-73.990112,40.737868],[-73.990075,40.738007],[-73.990003,40.738308],[-73.989972,40.738432],[-73.989953,40.738493],[-73.990053,40.738531],[-73.991257,40.739039],[-73.991303,40.739058],[-73.991388,40.739098],[-73.991499,40.739145],[-73.992914,40.739738],[-73.994472,40.740391],[-73.994593,40.740442],[-73.99455,40.740502],[-73.994233,40.740939],[-73.994203,40.74098],[-73.994167,40.741031],[-73.994124,40.74109],[-73.993854,40.741461],[-73.993805,40.741528],[-73.99378,40.741562],[-73.993732,40.741629],[-73.993694,40.74168],[-73.993329,40.742181],[-73.993292,40.742233],[-73.993242,40.742301],[-73.993059,40.742553],[-73.992876,40.742804],[-73.992798,40.74291],[-73.992732,40.743001],[-73.992359,40.743512],[-73.992318,40.743568],[-73.992267,40.743642],[-73.991978,40.744039],[-73.991907,40.744137],[-73.991871,40.744186],[-73.991822,40.744253],[-73.991456,40.744753],[-73.991409,40.744819],[-73.991369,40.744871],[-73.991108,40.745233],[-73.99101,40.745363],[-73.990968,40.745421],[-73.990923,40.745483],[-73.990657,40.745847],[-73.990561,40.745979],[-73.990518,40.746038],[-73.990474,40.746099],[-73.99038,40.746228],[-73.990237,40.746438],[-73.990109,40.746608],[-73.990098,40.746623],[-73.990068,40.746666],[-73.990027,40.746721],[-73.989661,40.747218],[-73.989617,40.747277],[-73.989572,40.747338],[-73.989305,40.747695],[-73.989204,40.747833],[-73.989157,40.747896],[-73.989317,40.747966],[-73.989673,40.748114],[-73.990293,40.748376],[-73.99158,40.748921],[-73.991884,40.74905],[-73.991848,40.749096],[-73.99181,40.749094],[-73.99173,40.749208]]}},{"type":"Feature","properties":{"start":489,"end":521,"count":15,"estimated":true},"geometry":{"type":"LineString","coordinates":[[-74.001807,40.75068],[-74.001784,40.750712],[-74.001776,40.750733],[-74.001748,40.750772],[-74.000723,40.750343],[-73.99924,40.749723],[-73.999178,40.749697],[-73.999065,40.749659],[-73.998898,40.749598],[-73.998837,40.749575],[-73.998784,40.749556],[-73.998732,40.749539],[-73.998682,40.749525],[-73.998626,40.749514],[-73.998571,40.749504],[-73.998523,40.749498],[-73.99848,40.749494],[-73.998434,40.74949],[-73.998387,40.749491],[-73.99833,40.749492],[-73.998264,40.749497],[-73.998099,40.749511],[-73.998051,40.749512],[-73.998001,40.749512],[-73.997954,40.749509],[-73.997916,40.749505],[-73.997859,40.749499],[-73.997801,40.749489],[-73.997741,40.749477],[-73.997683,40.749462],[-73.997626,40.749442],[-73.997566,40.749419],[-73.997491,40.74939],[-73.99743,40.749364],[-73.997365,40.749338],[-73.997312,40.749309],[-73.997217,40.749267],[-73.997133,40.749226],[-73.997069,40.749186],[-73.997002,40.749138],[-73.996945,40.749088],[-73.996888,40.749028],[-73.996853,40.748983],[-73.996844,40.74897],[-73.996809,40.748922],[-73.996771,40.748859],[-73.996735,40.748801],[-73.996684,40.748741],[-73.996658,40.748716],[-73.996632,40.74869],[-73.996575,40.748646],[-73.99651,40.748603],[-73.996456,40.748573],[-73.996399,40.748541],[-73.996341,40.748509],[-73.996192,40.748435],[-73.996141,40.748503],[-73.99602,40.748665],[-73.99578,40.748985],[-73.995729,40.749056],[-73.995693,40.749105],[-73.995333,40.749622],[-73.995296,40.749674],[-73.995256,40.74973],[-73.995094,40.749953],[-73.994887,40.750238],[-73.994845,40.750294],[-73.994791,40.750368],[-73.994852,40.750387],[-73.994878,40.750394],[-73.994847,40.750437],[-73.994845,40.750438],[-73.994841,40.75044],[-73.994837,40.750439],[-73.994824,40.750434],[-73.994823,40.750432],[-73.994822,40.750429],[-73.994823,40.750426],[-73.994807,40.750448]]}},{"type":"Feature","properties":{"start":2006,"end":499,"count":14,"estimated":true},"geometry":{"type":"LineString","coordinates":[[-73.976362,40.765882],[-73.976327,40.765867],[-73.976375,40.765735],[-73.976421,40.765755],[-73.97672,40.765881],[-73.976788,40.765909],[-73.977098,40.766041],[-73.977643,40.766271],[-73.978948,40.766825],[-73.979076,40.766876],[-73.979191,40.766925],[-73.979601,40.767098],[-73.980785,40.767599],[-73.981148,40.767812],[-73.981208,40.76784],[-73.981235,40.767857],[-73.98126,40.767877],[-73.981281,40.767905],[-73.981293,40.767929],[-73.9813,40.767943],[-73.981326,40.767988],[-73.981395,40.768104],[-73.9814,40.768126],[-73.981407,40.76815],[-73.981414,40.768168],[-73.981422,40.768187],[-73.981445,40.768225],[-73.981474,40.768263],[-73.981512,40.768301],[-73.981538,40.768322],[-73.981586,40.768354],[-73.981644,40.768383],[-73.981679,40.768399],[-73.981891,40.768504],[-73.981926,40.768524],[-73.981953,40.768544],[-73.981963,40.768553],[-73.981972,40.768564],[-73.981903,40.768625],[-73.98184,40.768682],[-73.98185,40.768692],[-73.981855,40.768704],[-73.981858,40.768718],[-73.98186,40.768741],[-73.981862,40.768824],[-73.981866,40.768937],[-73.981872,40.769156]]}},{"type":"Feature","properties":{"start":536,"end":492,"count":14,"estimated":true},"geometry":{"type":"LineString","coordinates":[[-73.975389,40.741456],[-73.975411,40.741425],[-73.975279,40.741354],[-73.974692,40.742163],[-73.974691,40.742163],[-73.974323,40.742669],[-73.974281,40.742728],[-73.974176,40.742868],[-73.974068,40.743016],[-73.974014,40.74309],[-73.974151,40.743148],[-73.975316,40.74364],[-73.975552,40.74374],[-73.976239,40.744036],[-73.976385,40.744111],[-73.9765,40.744173],[-73.978104,40.744848],[-73.978429,40.744984],[-73.978475,40.745003],[-73.978619,40.745065],[-73.978753,40.745124],[-73.980042,40.745672],[-73.980098,40.745694],[-73.980224,40.745746],[-73.980316,40.745787],[-73.980874,40.746023],[-73.981594,40.746325],[-73.981661,40.746353],[-73.981761,40.746394],[-73.981808,40.746338],[-73.981946,40.746395],[-73.981912,40.74646],[-73.982012,40.746502],[-73.983339,40.747057],[-73.983443,40.747101],[-73.983548,40.747146],[-73.984456,40.747528],[-73.984936,40.747731],[-73.985038,40.747774],[-73.985172,40.747831],[-73.987936,40.748996],[-73.988017,40.74903],[-73.988235,40.749122],[-73.988392,40.749189],[-73.990499,40.750087],[-73.990981,40.750294],[-73.990994,40.750235],[-73.99101,40.750212],[-73.991002,40.750208],[-73.990943,40.750183]]}},{"type":"Feature","properties":{"start":477,"end":519,"count":13,"estimated":true},"geometry":{"type":"LineString","coordinates":[[-73.990037,40.756391],[-73.99018,40.756451],[-73.99032,40.756507],[-73.990276,40.756567],[-73.990233,40.756626],[-73.990057,40.756868],[-73.989857,40.757144],[-73.989791,40.757234],[-73.989658,40.757177],[-73.988692,40.75677],[-73.98852,40.756698],[-73.988418,40.756655],[-73.988328,40.756617],[-73.987484,40.756262],[-73.987211,40.756146],[-73.98707,40.756087],[-73.986949,40.756036],[-73.986831,40.755988],[-73.986509,40.755854],[-73.986425,40.755819],[-73.986289,40.755762],[-73.986031,40.755653],[-73.985919,40.755605],[-73.985601,40.755471],[-73.984262,40.754903],[-73.984118,40.754842],[-73.983984,40.754786],[-73.983634,40.754639],[-73.982411,40.754123],[-73.981022,40.753534],[-73.980879,40.753481],[-73.980759,40.753435],[-73.980333,40.753257],[-73.979386,40.752856],[-73.979287,40.752813],[-73.97918,40.752765],[-73.979007,40.752694],[-73.978957,40.752671],[-73.978905,40.752647],[-73.978843,40.752618],[-73.978711,40.752555],[-73.978656,40.752528],[-73.978599,40.752501],[-73.978521,40.752468],[-73.978382,40.752411],[-73.978376,40.752419]]}},{"type":"Feature","properties":{"start":472,"end":528,"count":13,"estimated":true},"geometry":{"type":"LineString","coordinates":[[-73.981932,40.745733],[-73.982052,40.745784],[-73.982118,40.745737],[-73.981325,40.745404],[-73.980829,40.745194],[-73.980766,40.745168],[-73.98067,40.745128],[-73.980559,40.745082],[-73.979596,40.744678],[-73.979256,40.744535],[-73.979199,40.744511],[-73.979065,40.744454],[-73.978913,40.74439],[-73.97866,40.744284],[-73.977789,40.743917],[-73.977257,40.743692],[-73.976948,40.743559],[-73.976824,40.743505],[-73.976863,40.743453],[-73.977237,40.742944],[-73.97718,40.742921],[-73.977152,40.742909],[-73.977121,40.742896],[-73.977103,40.742888],[-73.977091,40.742883],[-73.977082,40.742879]]}},{"type":"Feature","properties":{"start":476,"end":379,"count":13,"estimated":true},"geometry":{"type":"LineString","coordinates":[[-73.979647,40.743962],[-73.9796,40.743942],[-73.979642,40.743884],[-73.980115,40.744087],[-73.980393,40.744205],[-73.980606,40.744289],[-73.980951,40.744433],[-73.981016,40.744461],[-73.98112,40.744505],[-73.98122,40.744546],[-73.982536,40.745099],[-73.982595,40.745124],[-73.982674,40.745157],[-73.982799,40.745209],[-73.982867,40.745238],[-73.98425,40.745818],[-73.984346,40.745859],[-73.984453,40.745904],[-73.985825,40.746482],[-73.985943,40.746531],[-73.986068,40.746584],[-73.986605,40.746812],[-73.986857,40.746919],[-73.988206,40.747492],[-73.988333,40.747546],[-73.988419,40.747583],[-73.988786,40.747739],[-73.989038,40.747845],[-73.989157,40.747896],[-73.989317,40.747966],[-73.989673,40.748114],[-73.990293,40.748376],[-73.99158,40.748921],[-73.991884,40.74905],[-73.991848,40.749096],[-73.99181,40.749094],[-73.99173,40.749208]]}},{"type":"Feature","properties":{"start":528,"end":237,"count":13,"estimated":true},"geometry":{"type":"LineString","coordinates":[[-73.977082,40.742879],[-73.977091,40.742883],[-73.977103,40.742888],[-73.977121,40.742896],[-73.977152,40.742909],[-73.97718,40.742921],[-73.977237,40.742944],[-73.977276,40.742891],[-73.977323,40.742826],[-73.977374,40.742756],[-73.97761,40.742427],[-73.977659,40.742361],[-73.97772,40.742274],[-73.977764,40.742212],[-73.978132,40.741708],[-73.97817,40.741655],[-73.978225,40.741582],[-73.978498,40.74124],[-73.978571,40.741142],[-73.978601,40.7411],[-73.978642,40.741043],[-73.978688,40.74098],[-73.978855,40.740746],[-73.979048,40.740474],[-73.979088,40.740419],[-73.979127,40.740364],[-73.97929,40.740135],[-73.979487,40.739857],[-73.979531,40.739795],[-73.979572,40.739739],[-73.979935,40.739238],[-73.979975,40.739181],[-73.98002,40.73912],[-73.980101,40.73901],[-73.980186,40.738895],[-73.980385,40.738617],[-73.980428,40.738556],[-73.980473,40.738496],[-73.980579,40.738352],[-73.980631,40.738283],[-73.98084,40.73799],[-73.980912,40.737889],[-73.98098,40.737795],[-73.981121,40.737601],[-73.981177,40.737524],[-73.981352,40.737282],[-73.981398,40.737219],[-73.981433,40.73717],[-73.981767,40.736709],[-73.981797,40.736666],[-73.981837,40.736613],[-73.981886,40.736545],[-73.982088,40.736267],[-73.98219,40.736126],[-73.982226,40.736077],[-73.982265,40.736024],[-73.982308,40.735963],[-73.982518,40.735675],[-73.982618,40.735537],[-73.982655,40.735486],[-73.982695,40.735431],[-73.982735,40.735376],[-73.982952,40.735079],[-73.983047,40.734949],[-73.983083,40.7349],[-73.983121,40.734848],[-73.983162,40.734792],[-73.983317,40.73458],[-73.983387,40.734483],[-73.983469,40.734371],[-73.983504,40.734323],[-73.983548,40.734263],[-73.983587,40.734209],[-73.983809,40.733903],[-73.983922,40.733749],[-73.983975,40.733677],[-73.984203,40.733361],[-73.984362,40.733142],[-73.984395,40.733096],[-73.984441,40.733033],[-73.98448,40.73298],[-73.984602,40.732807],[-73.984831,40.732497],[-73.984878,40.732434],[-73.984937,40.732353],[-73.985006,40.732259],[-73.985279,40.731884],[-73.985323,40.731824],[-73.98537,40.73176],[-73.985403,40.731714],[-73.985437,40.731667],[-73.985483,40.731605],[-73.98573,40.731265],[-73.985837,40.731119],[-73.985872,40.73107],[-73.985909,40.731019],[-73.985949,40.730964],[-73.986304,40.73048],[-73.986336,40.730435],[-73.986374,40.730382],[-73.986418,40.730322],[-73.986546,40.730376],[-73.986736,40.730456]]}},{"type":"Feature","properties":{"start":528,"end":379,"count":13,"estimated":true},"geometry":{"type":"LineString","coordinates":[[-73.977082,40.742879],[-73.977091,40.742883],[-73.977103,40.742888],[-73.977121,40.742896],[-73.977152,40.742909],[-73.97718,40.742921],[-73.977237,40.742944],[-73.977276,40.742891],[-73.977399,40.742942],[-73.97931,40.743744],[-73.979367,40.743768],[-73.979519,40.743832],[-73.979642,40.743884],[-73.980115,40.744087],[-73.980393,40.744205],[-73.980606,40.744289],[-73.980951,40.744433],[-73.981016,40.744461],[-73.98112,40.744505],[-73.98122,40.744546],[-73.982536,40.745099],[-73.982595,40.745124],[-73.982674,40.745157],[-73.982799,40.745209],[-73.982867,40.745238],[-73.98425,40.745818],[-73.984346,40.745859],[-73.984453,40.745904],[-73.985825,40.746482],[-73.985943,40.746531],[-73.986068,40.746584],[-73.986605,40.746812],[-73.986857,40.746919],[-73.988206,40.747492],[-73.988333,40.747546],[-73.988419,40.747583],[-73.988786,40.747739],[-73.989038,40.747845],[-73.989157,40.747896],[-73.989317,40.747966],[-73.989673,40.748114],[-73.990293,40.748376],[-73.99158,40.748921],[-73.991884,40.74905],[-73.991848,40.749096],[-73.99181,40.749094],[-73.99173,40.749208]]}},{"type":"Feature","properties":{"start":444,"end":379,"count":13,"estimated":true},"geometry":{"type":"LineString","coordinates":[[-73.989123,40.742342],[-73.989076,40.742406],[-73.989052,40.742439],[-73.989099,40.742455],[-73.989127,40.742467],[-73.98915,40.742479],[-73.989175,40.742496],[-73.989195,40.742514],[-73.989211,40.742533],[-73.989221,40.742553],[-73.989227,40.742573],[-73.989229,40.742595],[-73.989227,40.742616],[-73.989173,40.742968],[-73.989169,40.742995],[-73.989163,40.743043],[-73.989149,40.743122],[-73.989044,40.743731],[-73.989028,40.743817],[-73.989017,40.74387],[-73.988976,40.744093],[-73.988905,40.744476],[-73.988892,40.744536],[-73.988874,40.744623],[-73.988834,40.744725],[-73.988772,40.745026],[-73.988775,40.745099],[-73.988763,40.745232],[-73.988753,40.745289],[-73.988738,40.745368],[-73.988702,40.745449],[-73.988673,40.745524],[-73.988676,40.74558],[-73.988682,40.745668],[-73.988653,40.745821],[-73.988625,40.745973],[-73.98861,40.746048],[-73.988598,40.746113],[-73.988588,40.74617],[-73.988552,40.74624],[-73.988503,40.74648],[-73.988491,40.746599],[-73.988485,40.746727],[-73.988473,40.746796],[-73.98846,40.746866],[-73.98845,40.74692],[-73.988417,40.74697],[-73.988387,40.747124],[-73.988407,40.747186],[-73.988368,40.747352],[-73.988344,40.747486],[-73.98834,40.747507],[-73.988333,40.747546],[-73.988419,40.747583],[-73.988786,40.747739],[-73.989038,40.747845],[-73.989157,40.747896],[-73.989317,40.747966],[-73.989673,40.748114],[-73.990293,40.748376],[-73.99158,40.748921],[-73.991884,40.74905],[-73.991848,40.749096],[-73.99181,40.749094],[-73.99173,40.749208]]}},{"type":"Feature","properties":{"start":521,"end":489,"count":12,"estimated":true},"geometry":{"type":"LineString","coordinates":[[-73.994807,40.750448],[-73.994823,40.750426],[-73.994822,40.750429],[-73.994823,40.750432],[-73.994824,40.750434],[-73.994837,40.750439],[-73.994841,40.75044],[-73.994845,40.750438],[-73.994847,40.750437],[-73.994878,40.750394],[-73.994917,40.750407],[-73.994924,40.750401],[-73.99493,40.750398],[-73.994938,40.750396],[-73.994946,40.750395],[-73.994953,40.750395],[-73.994959,40.750396],[-73.994977,40.75037],[-73.994988,40.750354],[-73.995098,40.7504],[-73.99526,40.750468],[-73.99537,40.750514],[-73.997562,40.75144],[-73.997725,40.751507],[-73.997765,40.751449],[-73.997978,40.751158],[-73.998043,40.751069],[-73.998111,40.750974],[-73.998156,40.750907],[-73.998212,40.750827],[-73.998574,40.75033],[-73.998612,40.750275],[-73.998724,40.750319],[-73.999241,40.750537],[-74.001071,40.751309],[-74.001242,40.751381],[-74.001293,40.751403],[-74.001418,40.751459],[-74.001562,40.751522],[-74.0016,40.75147],[-74.00161,40.751456],[-74.001614,40.751451],[-74.00198,40.750942],[-74.001992,40.750935],[-74.002025,40.750888],[-74.001882,40.750828],[-74.001748,40.750772],[-74.001776,40.750733],[-74.001784,40.750712],[-74.001807,40.75068]]}},{"type":"Feature","properties":{"start":307,"end":502,"count":12,"estimated":true},"geometry":{"type":"LineString","coordinates":[[-73.989909,40.714258],[-73.990087,40.714317],[-73.99012,40.71432],[-73.990223,40.71433],[-73.990221,40.714267],[-73.99022,40.714188],[-73.990219,40.714145],[-73.990218,40.714053],[-73.990075,40.714066],[-73.989316,40.714131],[-73.988787,40.714177],[-73.988696,40.714185],[-73.988613,40.714192],[-73.987357,40.714301],[-73.987271,40.714308],[-73.98717,40.714317],[-73.987052,40.714326],[-73.986293,40.714391],[-73.985327,40.714471],[-73.984971,40.714501],[-73.984888,40.714505],[-73.984708,40.714509],[-73.984541,40.714515],[-73.98427,40.714537],[-73.98298,40.714639],[-73.982745,40.714661],[-73.982607,40.714677],[-73.982539,40.714686],[-73.982498,40.714696],[-73.982465,40.714708],[-73.982394,40.714687],[-73.98211,40.714604],[-73.982005,40.714573],[-73.981712,40.714487],[-73.981637,40.714465],[-73.981578,40.71445],[-73.981511,40.714431],[-73.981322,40.714376],[-73.981356,40.714304],[-73.981372,40.714272],[-73.981391,40.714234],[-73.981391,40.714234]]}},{"type":"Feature","properties":{"start":521,"end":458,"count":12,"estimated":true},"geometry":{"type":"LineString","coordinates":[[-73.994807,40.750448],[-73.994823,40.750426],[-73.994822,40.750429],[-73.994823,40.750432],[-73.994824,40.750434],[-73.994837,40.750439],[-73.994841,40.75044],[-73.994845,40.750438],[-73.994847,40.750437],[-73.994878,40.750394],[-73.994917,40.750407],[-73.994924,40.750401],[-73.99493,40.750398],[-73.994938,40.750396],[-73.994946,40.750395],[-73.994953,40.750395],[-73.994959,40.750396],[-73.994977,40.75037],[-73.994988,40.750354],[-73.995098,40.7504],[-73.99526,40.750468],[-73.99537,40.750514],[-73.997562,40.75144],[-73.997725,40.751507],[-73.997765,40.751449],[-73.997978,40.751158],[-73.998043,40.751069],[-73.998111,40.750974],[-73.998156,40.750907],[-73.998212,40.750827],[-73.998574,40.75033],[-73.998612,40.750275],[-73.998724,40.750319],[-73.999241,40.750537],[-74.001071,40.751309],[-74.001242,40.751381],[-74.001293,40.751403],[-74.001418,40.751459],[-74.001562,40.751522],[-74.002141,40.751764],[-74.003213,40.752217],[-74.003323,40.752262],[-74.003624,40.75239],[-74.004031,40.752563],[-74.004079,40.752584],[-74.004127,40.752604],[-74.004269,40.752665],[-74.004323,40.752591],[-74.00468,40.75209],[-74.004722,40.752031],[-74.004772,40.751962],[-74.005131,40.751468],[-74.005177,40.751404],[-74.005211,40.751418]]}},{"type":"Feature","properties":{"start":281,"end":2006,"count":12,"estimated":true},"geometry":{"type":"LineString","coordinates":[[-73.973711,40.764395],[-73.973665,40.764458],[-73.973692,40.764472],[-73.973727,40.76449],[-73.97376,40.764508],[-73.973784,40.764521],[-73.973814,40.764534],[-73.973802,40.764553],[-73.973791,40.764576],[-73.973764,40.764633],[-73.973825,40.764665],[-73.976125,40.76563],[-73.976244,40.76568],[-73.976199,40.765815],[-73.976327,40.765867],[-73.976362,40.765882]]}},{"type":"Feature","properties":{"start":519,"end":491,"count":12,"estimated":true},"geometry":{"type":"LineString","coordinates":[[-73.978376,40.752419],[-73.978382,40.752411],[-73.978521,40.752468],[-73.978599,40.752501],[-73.978656,40.752528],[-73.978711,40.752555],[-73.978843,40.752618],[-73.978905,40.752647],[-73.978957,40.752671],[-73.979007,40.752694],[-73.97918,40.752765],[-73.979287,40.752813],[-73.979386,40.752856],[-73.980333,40.753257],[-73.980759,40.753435],[-73.980879,40.753481],[-73.980945,40.753394],[-73.981132,40.753145],[-73.981326,40.752889],[-73.98138,40.752816],[-73.981418,40.752765],[-73.981777,40.752269],[-73.981824,40.752205],[-73.981868,40.752143],[-73.982195,40.751693],[-73.982227,40.751649],[-73.982276,40.751581],[-73.982316,40.751526],[-73.982674,40.751032],[-73.982727,40.75096],[-73.982774,40.750895],[-73.983123,40.750414],[-73.983175,40.750342],[-73.983226,40.75027],[-73.983575,40.749786],[-73.983617,40.749728],[-73.983665,40.749662],[-73.984028,40.749163],[-73.984071,40.749105],[-73.984108,40.749053],[-73.984488,40.74853],[-73.984546,40.748454],[-73.984618,40.748352],[-73.984995,40.747833],[-73.985038,40.747774],[-73.985084,40.747711],[-73.985241,40.747495],[-73.985449,40.747209],[-73.98549,40.747152],[-73.985531,40.747096],[-73.985901,40.746589],[-73.985943,40.746531],[-73.985984,40.746477],[-73.986305,40.74604],[-73.986354,40.745973],[-73.986392,40.745922],[-73.986436,40.745861],[-73.986586,40.745657],[-73.986804,40.745358],[-73.986846,40.745301],[-73.986873,40.745264],[-73.986888,40.745244],[-73.987254,40.744742],[-73.987301,40.744678],[-73.987336,40.74463],[-73.987707,40.744121],[-73.987745,40.744067],[-73.98779,40.744005],[-73.987952,40.743782],[-73.988114,40.743561],[-73.988151,40.743509],[-73.988191,40.743457],[-73.988237,40.743393],[-73.988325,40.743275],[-73.988389,40.74313],[-73.988418,40.743064],[-73.988442,40.74301],[-73.988534,40.742858],[-73.988577,40.742797],[-73.988597,40.742768],[-73.98862,40.742735],[-73.988915,40.742321],[-73.98893,40.742299],[-73.988942,40.742274],[-73.988948,40.742251],[-73.988953,40.742222],[-73.988955,40.7422],[-73.988954,40.74218],[-73.988951,40.742161],[-73.988941,40.742123],[-73.988938,40.742089],[-73.988939,40.742055],[-73.988942,40.742018],[-73.988968,40.741898],[-73.988997,40.74178],[-73.989085,40.741486],[-73.989138,40.741364],[-73.989065,40.741334],[-73.988782,40.741217],[-73.988659,40.741166],[-73.988642,40.741159],[-73.988614,40.741147],[-73.988507,40.741102],[-73.988358,40.741039],[-73.988086,40.740924],[-73.987985,40.740881],[-73.987914,40.74098],[-73.98754,40.741499],[-73.987506,40.741545],[-73.987403,40.741501],[-73.986031,40.740912],[-73.986,40.740954]]}},{"type":"Feature","properties":{"start":521,"end":499,"count":12,"estimated":true},"geometry":{"type":"LineString","coordinates":[[-73.994807,40.750448],[-73.99451,40.750856],[-73.994512,40.750855],[-73.994516,40.750854],[-73.99452,40.750854],[-73.994533,40.75086],[-73.994535,40.750862],[-73.994535,40.750864],[-73.994534,40.750867],[-73.994498,40.750916],[-73.994473,40.750906],[-73.994416,40.750882],[-73.993993,40.751464],[-73.993943,40.751532],[-73.993911,40.751575],[-73.993688,40.751882],[-73.993522,40.75211],[-73.993458,40.752199],[-73.993397,40.752283],[-73.993172,40.752591],[-73.993015,40.752805],[-73.992976,40.752858],[-73.992928,40.752925],[-73.992759,40.75315],[-73.99257,40.753417],[-73.992525,40.753478],[-73.992482,40.753537],[-73.992119,40.754036],[-73.992079,40.754091],[-73.992031,40.754157],[-73.991674,40.75465],[-73.991633,40.754707],[-73.991586,40.754772],[-73.991463,40.75494],[-73.991223,40.755267],[-73.991177,40.75533],[-73.991134,40.75539],[-73.990766,40.755897],[-73.990728,40.755949],[-73.990676,40.756018],[-73.99032,40.756507],[-73.990276,40.756567],[-73.990233,40.756626],[-73.990057,40.756868],[-73.989857,40.757144],[-73.989791,40.757234],[-73.98972,40.757331],[-73.989435,40.757721],[-73.98934,40.757852],[-73.989296,40.757912],[-73.989249,40.757977],[-73.98888,40.758482],[-73.988843,40.758532],[-73.9888,40.758592],[-73.988633,40.75882],[-73.988427,40.759103],[-73.988386,40.75916],[-73.98834,40.759223],[-73.988132,40.759508],[-73.987969,40.759731],[-73.987929,40.759787],[-73.987881,40.759851],[-73.987691,40.76011],[-73.987511,40.760361],[-73.987475,40.760409],[-73.987429,40.760473],[-73.987058,40.760981],[-73.987018,40.761037],[-73.986968,40.761105],[-73.986834,40.761301],[-73.986604,40.761612],[-73.986566,40.761668],[-73.986525,40.761723],[-73.986147,40.762232],[-73.986101,40.762294],[-73.986057,40.762355],[-73.985755,40.762769],[-73.985685,40.762865],[-73.985648,40.762916],[-73.985604,40.762978],[-73.985527,40.763086],[-73.985466,40.763173],[-73.985238,40.763495],[-73.985223,40.763515],[-73.985194,40.763557],[-73.985156,40.763606],[-73.984852,40.764008],[-73.984776,40.764112],[-73.984741,40.76416],[-73.984687,40.764233],[-73.984436,40.764572],[-73.984311,40.764742],[-73.984269,40.764798],[-73.984229,40.764856],[-73.983932,40.765278],[-73.98387,40.765371],[-73.983856,40.765392],[-73.983821,40.76544],[-73.983786,40.765486],[-73.983407,40.765992],[-73.983377,40.766032],[-73.983321,40.766108],[-73.982964,40.766592],[-73.98294,40.766625],[-73.982873,40.766716],[-73.982795,40.76682],[-73.982566,40.767126],[-73.982413,40.767331],[-73.982364,40.7674],[-73.982307,40.767472],[-73.982264,40.767537],[-73.982225,40.767593],[-73.982213,40.76761],[-73.982193,40.767636],[-73.982167,40.767661],[-73.98214,40.767682],[-73.982121,40.767692],[-73.982087,40.767705],[-73.982053,40.767696],[-73.982016,40.767687],[-73.981978,40.767681],[-73.981882,40.767675],[-73.981825,40.767678],[-73.981756,40.767684],[-73.981667,40.767715],[-73.981614,40.767738],[-73.981572,40.767761],[-73.981534,40.767788],[-73.981496,40.767821],[-73.981469,40.767849],[-73.981444,40.767883],[-73.981424,40.767916],[-73.981406,40.76796],[-73.981399,40.767982],[-73.981394,40.768006],[-73.981391,40.768035],[-73.981391,40.768064],[-73.981392,40.768083],[-73.981395,40.768104],[-73.9814,40.768126],[-73.981407,40.76815],[-73.981414,40.768168],[-73.981422,40.768187],[-73.981445,40.768225],[-73.981474,40.768263],[-73.981512,40.768301],[-73.981538,40.768322],[-73.981586,40.768354],[-73.981644,40.768383],[-73.981679,40.768399],[-73.981891,40.768504],[-73.981926,40.768524],[-73.981953,40.768544],[-73.981963,40.768553],[-73.981972,40.768564],[-73.981903,40.768625],[-73.98184,40.768682],[-73.98185,40.768692],[-73.981855,40.768704],[-73.981858,40.768718],[-73.98186,40.768741],[-73.981862,40.768824],[-73.981866,40.768937],[-73.981872,40.769156]]}},{"type":"Feature","properties":{"start":521,"end":434,"count":12,"estimated":true},"geometry":{"type":"LineString","coordinates":[[-73.994807,40.750448],[-73.994823,40.750426],[-73.994822,40.750429],[-73.994823,40.750432],[-73.994824,40.750434],[-73.994837,40.750439],[-73.994841,40.75044],[-73.994845,40.750438],[-73.994847,40.750437],[-73.994878,40.750394],[-73.994917,40.750407],[-73.994924,40.750401],[-73.99493,40.750398],[-73.994938,40.750396],[-73.994946,40.750395],[-73.994953,40.750395],[-73.994959,40.750396],[-73.994977,40.75037],[-73.994988,40.750354],[-73.995098,40.7504],[-73.99526,40.750468],[-73.99537,40.750514],[-73.997562,40.75144],[-73.997725,40.751507],[-73.997765,40.751449],[-73.997978,40.751158],[-73.998043,40.751069],[-73.998111,40.750974],[-73.998156,40.750907],[-73.998212,40.750827],[-73.998574,40.75033],[-73.998612,40.750275],[-73.998663,40.750206],[-73.998714,40.750137],[-73.998998,40.749748],[-73.999031,40.749703],[-73.999065,40.749659],[-73.999107,40.7496],[-73.999454,40.749123],[-73.999577,40.748951],[-73.999696,40.748789],[-73.999893,40.748518],[-73.999925,40.748474],[-73.999957,40.74843],[-74.000013,40.748355],[-74.000374,40.747858],[-74.000422,40.747791],[-74.000463,40.747735],[-74.000605,40.747536],[-74.000825,40.747234],[-74.000868,40.747171],[-74.000909,40.747116],[-74.001061,40.746911],[-74.001287,40.746597],[-74.00135,40.746521],[-74.001425,40.746434],[-74.001574,40.746229],[-74.00182,40.745912],[-74.001859,40.745856],[-74.001903,40.745793],[-74.002229,40.74533],[-74.002261,40.745285],[-74.002297,40.745235],[-74.002345,40.745167],[-74.002476,40.744988],[-74.002651,40.744749],[-74.002684,40.744703],[-74.002733,40.744639],[-74.002774,40.744583],[-74.003113,40.744112],[-74.003155,40.744056],[-74.003204,40.743991],[-74.003301,40.74385],[-74.003543,40.743527],[-74.003581,40.743476],[-74.003449,40.74342],[-74.003417,40.743407],[-74.003464,40.743344],[-74.003599,40.743148]]}},{"type":"Feature","properties":{"start":318,"end":477,"count":12,"estimated":true},"geometry":{"type":"LineString","coordinates":[[-73.977973,40.75322],[-73.977928,40.753201],[-73.977938,40.753187],[-73.977961,40.753146],[-73.978329,40.753301],[-73.978677,40.753446],[-73.978776,40.753486],[-73.978891,40.753533],[-73.980274,40.754116],[-73.980392,40.754166],[-73.980436,40.754102],[-73.980809,40.753577],[-73.980879,40.753481],[-73.981022,40.753534],[-73.982411,40.754123],[-73.983634,40.754639],[-73.983984,40.754786],[-73.984118,40.754842],[-73.984262,40.754903],[-73.985601,40.755471],[-73.985919,40.755605],[-73.986031,40.755653],[-73.986289,40.755762],[-73.986425,40.755819],[-73.986509,40.755854],[-73.986831,40.755988],[-73.986949,40.756036],[-73.987015,40.755949],[-73.987402,40.755433],[-73.987447,40.755373],[-73.987537,40.755411],[-73.988444,40.755794],[-73.988541,40.755835],[-73.990137,40.756508],[-73.99018,40.756451],[-73.990037,40.756391]]}},{"type":"Feature","properties":{"start":116,"end":521,"count":12,"estimated":true},"geometry":{"type":"LineString","coordinates":[[-74.001508,40.74176],[-74.001296,40.741674],[-74.00128,40.741667],[-74.00121,40.741637],[-74.001192,40.741629],[-74.001164,40.741617],[-74.001123,40.741674],[-74.001081,40.74173],[-74.000739,40.742197],[-74.000695,40.742258],[-74.000653,40.742318],[-74.000549,40.742464],[-74.000477,40.742562],[-74.00031,40.74279],[-74.000268,40.742847],[-74.000233,40.742895],[-73.999917,40.743336],[-73.999889,40.743375],[-73.99985,40.743429],[-73.999806,40.743489],[-73.999688,40.743647],[-73.999489,40.743922],[-73.999469,40.74395],[-73.999413,40.744026],[-73.999382,40.744069],[-73.999013,40.744571],[-73.998969,40.74463],[-73.998924,40.74469],[-73.998775,40.7449],[-73.998546,40.745204],[-73.998472,40.745305],[-73.998409,40.745387],[-73.998068,40.74586],[-73.998037,40.745902],[-73.99799,40.745965],[-73.997945,40.746025],[-73.997823,40.746199],[-73.997746,40.746306],[-73.997589,40.746525],[-73.99755,40.74658],[-73.997505,40.746641],[-73.997141,40.747141],[-73.997085,40.747217],[-73.997053,40.747262],[-73.996675,40.747781],[-73.996635,40.747836],[-73.996598,40.747886],[-73.996241,40.748368],[-73.996192,40.748435],[-73.996141,40.748503],[-73.99602,40.748665],[-73.99578,40.748985],[-73.995729,40.749056],[-73.995693,40.749105],[-73.995333,40.749622],[-73.995296,40.749674],[-73.995256,40.74973],[-73.995094,40.749953],[-73.994887,40.750238],[-73.994845,40.750294],[-73.994791,40.750368],[-73.994852,40.750387],[-73.994878,40.750394],[-73.994847,40.750437],[-73.994845,40.750438],[-73.994841,40.75044],[-73.994837,40.750439],[-73.994824,40.750434],[-73.994823,40.750432],[-73.994822,40.750429],[-73.994823,40.750426],[-73.994807,40.750448]]}},{"type":"Feature","properties":{"start":499,"end":479,"count":12,"estimated":true},"geometry":{"type":"LineString","coordinates":[[-73.981872,40.769156],[-73.981866,40.768937],[-73.981862,40.768824],[-73.981914,40.768827],[-73.981993,40.768831],[-73.981996,40.768897],[-73.982061,40.768908],[-73.982134,40.768928],[-73.9822,40.76895],[-73.982333,40.769004],[-73.983068,40.76931],[-73.983132,40.769337],[-73.983313,40.769415],[-73.983614,40.769542],[-73.983884,40.769657],[-73.984197,40.76979],[-73.984317,40.769855],[-73.984382,40.769763],[-73.984729,40.769285],[-73.984769,40.769231],[-73.984822,40.769156],[-73.984994,40.768914],[-73.985164,40.768677],[-73.98522,40.768598],[-73.985265,40.768537],[-73.985459,40.76827],[-73.985641,40.768018],[-73.985718,40.767916],[-73.985785,40.767823],[-73.986065,40.767434],[-73.986161,40.767308],[-73.986207,40.767247],[-73.986252,40.767188],[-73.98649,40.766873],[-73.986633,40.766683],[-73.986668,40.766637],[-73.9867,40.76659],[-73.986714,40.76657],[-73.98698,40.766204],[-73.987082,40.766052],[-73.987125,40.765994],[-73.987165,40.765939],[-73.987421,40.765583],[-73.987533,40.765426],[-73.987575,40.765366],[-73.987616,40.765312],[-73.987896,40.764926],[-73.987992,40.764796],[-73.988023,40.764753],[-73.988073,40.764685],[-73.988445,40.764174],[-73.98849,40.764112],[-73.988527,40.764061],[-73.988758,40.763745],[-73.988902,40.763546],[-73.988943,40.76349],[-73.988986,40.763432],[-73.98921,40.763124],[-73.989358,40.762921],[-73.989402,40.762862],[-73.98944,40.762808],[-73.989664,40.7625],[-73.989815,40.762293],[-73.989859,40.762233],[-73.989895,40.762183],[-73.990269,40.761671],[-73.990316,40.761605],[-73.990352,40.761556],[-73.990633,40.761172],[-73.990731,40.761037],[-73.990767,40.760987],[-73.990802,40.760938],[-73.991184,40.760415],[-73.991227,40.760355],[-73.991265,40.760302],[-73.991133,40.760245],[-73.991191,40.760166]]}},{"type":"Feature","properties":{"start":447,"end":480,"count":11,"estimated":true},"geometry":{"type":"LineString","coordinates":[[-73.9851,40.76368],[-73.984852,40.764008],[-73.984776,40.764112],[-73.984741,40.76416],[-73.984884,40.76422],[-73.987449,40.765311],[-73.987575,40.765366],[-73.987717,40.765427],[-73.990303,40.766517],[-73.990414,40.766564],[-73.990549,40.766621],[-73.990519,40.766664],[-73.990508,40.766674],[-73.990604,40.766715]]}},{"type":"Feature","properties":{"start":546,"end":519,"count":11,"estimated":true},"geometry":{"type":"LineString","coordinates":[[-73.983045,40.744435],[-73.983081,40.74445],[-73.983163,40.744485],[-73.983119,40.744546],[-73.983085,40.744592],[-73.982737,40.745071],[-73.98271,40.745108],[-73.982674,40.745157],[-73.982799,40.745209],[-73.982867,40.745238],[-73.98425,40.745818],[-73.984346,40.745859],[-73.984297,40.745926],[-73.98394,40.746418],[-73.983891,40.746483],[-73.983853,40.746534],[-73.983756,40.746673],[-73.983502,40.747018],[-73.983489,40.747036],[-73.983443,40.747101],[-73.983402,40.747157],[-73.983019,40.747694],[-73.982961,40.747771],[-73.982902,40.747849],[-73.982553,40.748322],[-73.982515,40.748377],[-73.982478,40.74843],[-73.982431,40.748494],[-73.982068,40.748991],[-73.982023,40.749055],[-73.98198,40.749111],[-73.981611,40.74961],[-73.98157,40.749665],[-73.981523,40.74973],[-73.981193,40.750187],[-73.981162,40.75023],[-73.981123,40.750283],[-73.981075,40.750351],[-73.980712,40.750862],[-73.980677,40.750907],[-73.980637,40.75096],[-73.980318,40.751404],[-73.980265,40.751479],[-73.980222,40.751535],[-73.980189,40.751579],[-73.980076,40.751734],[-73.979856,40.752035],[-73.979817,40.752088],[-73.979779,40.75214],[-73.979728,40.75221],[-73.979355,40.752719],[-73.979287,40.752813],[-73.97918,40.752765],[-73.979007,40.752694],[-73.978957,40.752671],[-73.978905,40.752647],[-73.978843,40.752618],[-73.978711,40.752555],[-73.978656,40.752528],[-73.978599,40.752501],[-73.978521,40.752468],[-73.978382,40.752411],[-73.978376,40.752419]]}},{"type":"Feature","properties":{"start":442,"end":489,"count":11,"estimated":true},"geometry":{"type":"LineString","coordinates":[[-73.993907,40.746658],[-73.993934,40.74667],[-73.993966,40.746684],[-73.994251,40.746806],[-73.994774,40.74703],[-73.995607,40.747386],[-73.996433,40.74774],[-73.996505,40.747771],[-73.996635,40.747836],[-73.996598,40.747886],[-73.996241,40.748368],[-73.996192,40.748435],[-73.996141,40.748503],[-73.99602,40.748665],[-73.99578,40.748985],[-73.995729,40.749056],[-73.995876,40.749123],[-73.998224,40.750114],[-73.998448,40.75021],[-73.998612,40.750275],[-73.998724,40.750319],[-73.999241,40.750537],[-74.001071,40.751309],[-74.001242,40.751381],[-74.001293,40.751403],[-74.001418,40.751459],[-74.001562,40.751522],[-74.0016,40.75147],[-74.00161,40.751456],[-74.001614,40.751451],[-74.00198,40.750942],[-74.001992,40.750935],[-74.002025,40.750888],[-74.001882,40.750828],[-74.001748,40.750772],[-74.001776,40.750733],[-74.001784,40.750712],[-74.001807,40.75068]]}},{"type":"Feature","properties":{"start":379,"end":402,"count":11,"estimated":true},"geometry":{"type":"LineString","coordinates":[[-73.99173,40.749208],[-73.99181,40.749094],[-73.991848,40.749096],[-73.99197,40.749151],[-73.992006,40.749101],[-73.992048,40.749042],[-73.99241,40.748542],[-73.992463,40.748469],[-73.992339,40.748417],[-73.990215,40.747528],[-73.990075,40.747469],[-73.989746,40.747331],[-73.989617,40.747277],[-73.989489,40.747225],[-73.988556,40.746831],[-73.988473,40.746796],[-73.988485,40.746727],[-73.988491,40.746599],[-73.988503,40.74648],[-73.988552,40.74624],[-73.988588,40.74617],[-73.988598,40.746113],[-73.98861,40.746048],[-73.988625,40.745973],[-73.988653,40.745821],[-73.988682,40.745668],[-73.988676,40.74558],[-73.988673,40.745524],[-73.988702,40.745449],[-73.988738,40.745368],[-73.988753,40.745289],[-73.988636,40.745241],[-73.988072,40.745006],[-73.987419,40.744729],[-73.987301,40.744678],[-73.987336,40.74463],[-73.987707,40.744121],[-73.987745,40.744067],[-73.98779,40.744005],[-73.987952,40.743782],[-73.988114,40.743561],[-73.988151,40.743509],[-73.988191,40.743457],[-73.988237,40.743393],[-73.988325,40.743275],[-73.988389,40.74313],[-73.988418,40.743064],[-73.988442,40.74301],[-73.988534,40.742858],[-73.988577,40.742797],[-73.988597,40.742768],[-73.98862,40.742735],[-73.988915,40.742321],[-73.98893,40.742299],[-73.988942,40.742274],[-73.988948,40.742251],[-73.988953,40.742222],[-73.988955,40.7422],[-73.988954,40.74218],[-73.988951,40.742161],[-73.988941,40.742123],[-73.988938,40.742089],[-73.988939,40.742055],[-73.988942,40.742018],[-73.988968,40.741898],[-73.988997,40.74178],[-73.989085,40.741486],[-73.989138,40.741364],[-73.989162,40.741291],[-73.989176,40.741251],[-73.989269,40.740954],[-73.989281,40.740936],[-73.989362,40.740853],[-73.989371,40.740837],[-73.989422,40.740676],[-73.989425,40.740663],[-73.989442,40.740619],[-73.989449,40.7406],[-73.989466,40.740555],[-73.989519,40.740375],[-73.989552,40.740344]]}},{"type":"Feature","properties":{"start":521,"end":510,"count":11,"estimated":true},"geometry":{"type":"LineString","coordinates":[[-73.994807,40.750448],[-73.99451,40.750856],[-73.994512,40.750855],[-73.994516,40.750854],[-73.99452,40.750854],[-73.994533,40.75086],[-73.994535,40.750862],[-73.994535,40.750864],[-73.994534,40.750867],[-73.994498,40.750916],[-73.994473,40.750906],[-73.994416,40.750882],[-73.993993,40.751464],[-73.993943,40.751532],[-73.993911,40.751575],[-73.993688,40.751882],[-73.993522,40.75211],[-73.993458,40.752199],[-73.993397,40.752283],[-73.993172,40.752591],[-73.993015,40.752805],[-73.992976,40.752858],[-73.992928,40.752925],[-73.992759,40.75315],[-73.99257,40.753417],[-73.992525,40.753478],[-73.992482,40.753537],[-73.992119,40.754036],[-73.992079,40.754091],[-73.992031,40.754157],[-73.991674,40.75465],[-73.991633,40.754707],[-73.991586,40.754772],[-73.991463,40.75494],[-73.991223,40.755267],[-73.991177,40.75533],[-73.991134,40.75539],[-73.990766,40.755897],[-73.990728,40.755949],[-73.990586,40.755889],[-73.989412,40.755396],[-73.988017,40.75481],[-73.987888,40.754755],[-73.98777,40.754705],[-73.987488,40.754586],[-73.987004,40.754381],[-73.986933,40.754351],[-73.986898,40.754335],[-73.986848,40.754314],[-73.986725,40.754263],[-73.985178,40.753616],[-73.98504,40.753559],[-73.984996,40.753619],[-73.984945,40.753691],[-73.984637,40.754119],[-73.984596,40.754177],[-73.984554,40.754236],[-73.984432,40.754407],[-73.984179,40.754757],[-73.984118,40.754842],[-73.984047,40.754938],[-73.984031,40.75496],[-73.983669,40.755455],[-73.983624,40.755516],[-73.983581,40.755574],[-73.983208,40.756085],[-73.983167,40.756142],[-73.983122,40.756205],[-73.982754,40.756713],[-73.982712,40.756771],[-73.982667,40.756832],[-73.982304,40.757322],[-73.982254,40.75739],[-73.982207,40.757454],[-73.981836,40.757963],[-73.981798,40.758016],[-73.981752,40.75808],[-73.981651,40.758218],[-73.981384,40.758586],[-73.981341,40.758645],[-73.981296,40.758707],[-73.980924,40.759218],[-73.980883,40.759274],[-73.980702,40.759522],[-73.980466,40.759844],[-73.980418,40.759911],[-73.980315,40.760053],[-73.980283,40.760098],[-73.980013,40.760469],[-73.980112,40.760515],[-73.980142,40.760528],[-73.98043,40.760646]]}},{"type":"Feature","properties":{"start":387,"end":309,"count":11,"estimated":true},"geometry":{"type":"LineString","coordinates":[[-74.004642,40.712752],[-74.004674,40.712719],[-74.004727,40.712671],[-74.004803,40.712603],[-74.004873,40.712548],[-74.004849,40.712526],[-74.004814,40.712498],[-74.004847,40.712476],[-74.004865,40.712465],[-74.004898,40.712443],[-74.004972,40.712402],[-74.005036,40.712367],[-74.005115,40.712331],[-74.005196,40.712298],[-74.005284,40.712266],[-74.005693,40.71213],[-74.005758,40.712113],[-74.006033,40.712047],[-74.006107,40.712031],[-74.006143,40.712024],[-74.00619,40.712014],[-74.006962,40.71182],[-74.007068,40.711795],[-74.007195,40.711761],[-74.007491,40.711684],[-74.007551,40.711673],[-74.007608,40.711668],[-74.007665,40.711669],[-74.007711,40.711676],[-74.007775,40.711696],[-74.007844,40.711731],[-74.007901,40.711774],[-74.007991,40.711844],[-74.008052,40.711904],[-74.008095,40.711948],[-74.008134,40.711988],[-74.008148,40.712001],[-74.008182,40.712027],[-74.008202,40.712041],[-74.00823,40.712057],[-74.008879,40.71236],[-74.009196,40.712508],[-74.009557,40.712677],[-74.009634,40.712713],[-74.009712,40.712749],[-74.009796,40.712787],[-74.01063,40.713167],[-74.010911,40.713295],[-74.011008,40.713338],[-74.01111,40.713382],[-74.011541,40.713583],[-74.011617,40.713617],[-74.011844,40.713722],[-74.012223,40.713892],[-74.012326,40.713939],[-74.012425,40.713986],[-74.012513,40.714024],[-74.01278,40.714131],[-74.012851,40.714162],[-74.013217,40.714329],[-74.013275,40.714356],[-74.013262,40.714407],[-74.013258,40.714424],[-74.013126,40.714969],[-74.013096,40.715097],[-74.013072,40.715096],[-74.013075,40.715085],[-74.013087,40.715037],[-74.013,40.715024]]}},{"type":"Feature","properties":{"start":469,"end":173,"count":11,"estimated":true},"geometry":{"type":"LineString","coordinates":[[-73.982664,40.763436],[-73.982682,40.763402],[-73.982735,40.763317],[-73.982767,40.76333],[-73.982903,40.763382],[-73.982934,40.763327],[-73.983042,40.763128],[-73.983223,40.762799],[-73.983261,40.762738],[-73.983284,40.762698],[-73.983299,40.762671],[-73.983635,40.762155],[-73.983678,40.762086],[-73.983724,40.762014],[-73.983881,40.761778],[-73.984061,40.761508],[-73.984098,40.76145],[-73.98414,40.761388],[-73.984415,40.760967],[-73.98448,40.760867],[-73.984521,40.760804],[-73.984551,40.76075],[-73.9845,40.760731],[-73.984469,40.760719],[-73.98441,40.760694],[-73.984396,40.760688],[-73.984417,40.760644]]}},{"type":"Feature","properties":{"start":3002,"end":327,"count":11,"estimated":true},"geometry":{"type":"LineString","coordinates":[[-74.015814,40.71153],[-74.015784,40.711584],[-74.015628,40.711517],[-74.015163,40.711324],[-74.014888,40.711209],[-74.014814,40.71118],[-74.014798,40.711263],[-74.014782,40.711336],[-74.014771,40.711381],[-74.014693,40.71174],[-74.01469,40.71176],[-74.014688,40.711782],[-74.014689,40.711803],[-74.014695,40.71185],[-74.014696,40.711868],[-74.014693,40.711897],[-74.014688,40.711922],[-74.014663,40.71202],[-74.014654,40.712054],[-74.014645,40.712085],[-74.014552,40.71245],[-74.014549,40.712461],[-74.014541,40.712492],[-74.014521,40.71257],[-74.014503,40.712639],[-74.014493,40.712671],[-74.014366,40.713102],[-74.014349,40.713159],[-74.014336,40.713202],[-74.014332,40.713218],[-74.014319,40.713255],[-74.014302,40.713296],[-74.014284,40.713335],[-74.014238,40.713408],[-74.014212,40.713453],[-74.014191,40.713497],[-74.014177,40.71353],[-74.014167,40.713565],[-74.014158,40.713609],[-74.014154,40.713642],[-74.014152,40.713675],[-74.014147,40.713702],[-74.014142,40.713719],[-74.014131,40.713754],[-74.014117,40.713799],[-74.014098,40.713858],[-74.014168,40.713888],[-74.014427,40.714004],[-74.014974,40.714249],[-74.015109,40.714309],[-74.016015,40.714709],[-74.016055,40.714727],[-74.016183,40.714789],[-74.016147,40.714843],[-74.01611,40.714899],[-74.016044,40.714991],[-74.015948,40.715117],[-74.016085,40.71518],[-74.016135,40.715202],[-74.016547,40.715386]]}},{"type":"Feature","properties":{"start":497,"end":116,"count":11,"estimated":true},"geometry":{"type":"LineString","coordinates":[[-73.990074,40.737077],[-73.990198,40.737128],[-73.990206,40.737084],[-73.990224,40.737069],[-73.990337,40.737127],[-73.990413,40.737167],[-73.991413,40.737579],[-73.991663,40.737683],[-73.992106,40.737868],[-73.992152,40.737887],[-73.992248,40.737924],[-73.992354,40.737969],[-73.994282,40.738781],[-73.995328,40.739222],[-73.995446,40.739272],[-73.995586,40.739331],[-73.998164,40.740418],[-73.998287,40.74047],[-73.998425,40.740529],[-74.000985,40.741615],[-74.001123,40.741674],[-74.0012,40.741708],[-74.001234,40.741722],[-74.001256,40.741732],[-74.001288,40.741687],[-74.001296,40.741674],[-74.001508,40.74176]]}},{"type":"Feature","properties":{"start":499,"end":281,"count":11,"estimated":true},"geometry":{"type":"LineString","coordinates":[[-73.981872,40.769156],[-73.981866,40.768937],[-73.981862,40.768824],[-73.98186,40.768741],[-73.981858,40.768718],[-73.981855,40.768704],[-73.98185,40.768692],[-73.98184,40.768682],[-73.981677,40.768615],[-73.981636,40.768598],[-73.981591,40.76858],[-73.981518,40.768553],[-73.98144,40.768523],[-73.981415,40.768513],[-73.981419,40.768504],[-73.981422,40.768496],[-73.981421,40.768488],[-73.981419,40.768483],[-73.981414,40.768476],[-73.9814,40.768464],[-73.981396,40.76846],[-73.981356,40.768431],[-73.9813,40.768379],[-73.981238,40.768315],[-73.981182,40.768191],[-73.981167,40.768139],[-73.981161,40.768094],[-73.981161,40.768015],[-73.981165,40.767984],[-73.981173,40.767906],[-73.981179,40.767888],[-73.981182,40.767881],[-73.981208,40.76784],[-73.981226,40.767812],[-73.981238,40.767796],[-73.981249,40.767782],[-73.981275,40.767753],[-73.981232,40.767735],[-73.981185,40.767718],[-73.980785,40.767599],[-73.979601,40.767098],[-73.979191,40.766925],[-73.979076,40.766876],[-73.978948,40.766825],[-73.977643,40.766271],[-73.977098,40.766041],[-73.976788,40.765909],[-73.97672,40.765881],[-73.976421,40.765755],[-73.976375,40.765735],[-73.976244,40.76568],[-73.976125,40.76563],[-73.973825,40.764665],[-73.973764,40.764633],[-73.973704,40.764598],[-73.973659,40.764569],[-73.973694,40.764533],[-73.973727,40.76449],[-73.973692,40.764472],[-73.973665,40.764458],[-73.973711,40.764395]]}},{"type":"Feature","properties":{"start":285,"end":433,"count":11,"estimated":true},"geometry":{"type":"LineString","coordinates":[[-73.990701,40.734541],[-73.990675,40.734652],[-73.990707,40.734664],[-73.990801,40.734704],[-73.990809,40.734674],[-73.990826,40.734602],[-73.990859,40.734441],[-73.990949,40.734051],[-73.990953,40.733981],[-73.990959,40.733916],[-73.991099,40.733273],[-73.991114,40.733214],[-73.991019,40.733174],[-73.990465,40.732939],[-73.990236,40.732843],[-73.990173,40.732817],[-73.990029,40.732756],[-73.989893,40.7327],[-73.98835,40.732048],[-73.988293,40.732024],[-73.988157,40.731967],[-73.988023,40.731911],[-73.986292,40.731186],[-73.986129,40.731115],[-73.986041,40.731077],[-73.985909,40.731019],[-73.985826,40.730984],[-73.985784,40.730966],[-73.983681,40.73008],[-73.983644,40.730065],[-73.983536,40.730019],[-73.983419,40.72997],[-73.982735,40.729681],[-73.981422,40.729127],[-73.981325,40.729086],[-73.981288,40.729136],[-73.980897,40.729672],[-73.980825,40.729638],[-73.980801,40.729628],[-73.980585,40.729537]]}},{"type":"Feature","properties":{"start":477,"end":510,"count":11,"estimated":true},"geometry":{"type":"LineString","coordinates":[[-73.990037,40.756391],[-73.99018,40.756451],[-73.99032,40.756507],[-73.990276,40.756567],[-73.990233,40.756626],[-73.990057,40.756868],[-73.989857,40.757144],[-73.989791,40.757234],[-73.98972,40.757331],[-73.989435,40.757721],[-73.98934,40.757852],[-73.989296,40.757912],[-73.989249,40.757977],[-73.98888,40.758482],[-73.988843,40.758532],[-73.988722,40.758481],[-73.987189,40.757836],[-73.98617,40.757408],[-73.986164,40.757405],[-73.986116,40.757386],[-73.986088,40.757374],[-73.986012,40.757342],[-73.985899,40.757296],[-73.985863,40.757281],[-73.985829,40.757266],[-73.985727,40.757224],[-73.98569,40.757208],[-73.984042,40.756512],[-73.983297,40.756197],[-73.983167,40.756142],[-73.983122,40.756205],[-73.982754,40.756713],[-73.982712,40.756771],[-73.982667,40.756832],[-73.982304,40.757322],[-73.982254,40.75739],[-73.982207,40.757454],[-73.981836,40.757963],[-73.981798,40.758016],[-73.981752,40.75808],[-73.981651,40.758218],[-73.981384,40.758586],[-73.981341,40.758645],[-73.981296,40.758707],[-73.980924,40.759218],[-73.980883,40.759274],[-73.980702,40.759522],[-73.980466,40.759844],[-73.980418,40.759911],[-73.980315,40.760053],[-73.980283,40.760098],[-73.980013,40.760469],[-73.980112,40.760515],[-73.980142,40.760528],[-73.98043,40.760646]]}},{"type":"Feature","properties":{"start":519,"end":379,"count":11,"estimated":true},"geometry":{"type":"LineString","coordinates":[[-73.978376,40.752419],[-73.978382,40.752411],[-73.978521,40.752468],[-73.978599,40.752501],[-73.978656,40.752528],[-73.978711,40.752555],[-73.978843,40.752618],[-73.978905,40.752647],[-73.978957,40.752671],[-73.979007,40.752694],[-73.97918,40.752765],[-73.979287,40.752813],[-73.979386,40.752856],[-73.980333,40.753257],[-73.980759,40.753435],[-73.980879,40.753481],[-73.980945,40.753394],[-73.981132,40.753145],[-73.981326,40.752889],[-73.98138,40.752816],[-73.981418,40.752765],[-73.981777,40.752269],[-73.981824,40.752205],[-73.981868,40.752143],[-73.982195,40.751693],[-73.982227,40.751649],[-73.982276,40.751581],[-73.982316,40.751526],[-73.982674,40.751032],[-73.982727,40.75096],[-73.982774,40.750895],[-73.983123,40.750414],[-73.983175,40.750342],[-73.983226,40.75027],[-73.983575,40.749786],[-73.983617,40.749728],[-73.983665,40.749662],[-73.984028,40.749163],[-73.984071,40.749105],[-73.984108,40.749053],[-73.984488,40.74853],[-73.984546,40.748454],[-73.984618,40.748352],[-73.984995,40.747833],[-73.985038,40.747774],[-73.985084,40.747711],[-73.985241,40.747495],[-73.985449,40.747209],[-73.98549,40.747152],[-73.985531,40.747096],[-73.985901,40.746589],[-73.985943,40.746531],[-73.986068,40.746584],[-73.986605,40.746812],[-73.986857,40.746919],[-73.988206,40.747492],[-73.988333,40.747546],[-73.988419,40.747583],[-73.988786,40.747739],[-73.989038,40.747845],[-73.989157,40.747896],[-73.989317,40.747966],[-73.989673,40.748114],[-73.990293,40.748376],[-73.99158,40.748921],[-73.991884,40.74905],[-73.991848,40.749096],[-73.99181,40.749094],[-73.99173,40.749208]]}},{"type":"Feature","properties":{"start":327,"end":3002,"count":11,"estimated":true},"geometry":{"type":"LineString","coordinates":[[-74.016547,40.715386],[-74.016135,40.715202],[-74.016085,40.71518],[-74.015948,40.715117],[-74.016044,40.714991],[-74.01611,40.714899],[-74.016147,40.714843],[-74.016183,40.714789],[-74.016055,40.714727],[-74.016015,40.714709],[-74.015109,40.714309],[-74.014974,40.714249],[-74.014427,40.714004],[-74.014168,40.713888],[-74.014098,40.713858],[-74.014117,40.713799],[-74.014131,40.713754],[-74.014142,40.713719],[-74.014147,40.713702],[-74.014152,40.713675],[-74.014154,40.713642],[-74.014158,40.713609],[-74.014167,40.713565],[-74.014177,40.71353],[-74.014191,40.713497],[-74.014212,40.713453],[-74.014238,40.713408],[-74.014284,40.713335],[-74.014302,40.713296],[-74.014319,40.713255],[-74.014332,40.713218],[-74.014336,40.713202],[-74.014349,40.713159],[-74.014366,40.713102],[-74.014493,40.712671],[-74.014503,40.712639],[-74.014521,40.71257],[-74.014541,40.712492],[-74.014549,40.712461],[-74.014552,40.71245],[-74.014645,40.712085],[-74.014654,40.712054],[-74.014663,40.71202],[-74.014688,40.711922],[-74.014693,40.711897],[-74.014696,40.711868],[-74.014695,40.71185],[-74.014689,40.711803],[-74.014688,40.711782],[-74.01469,40.71176],[-74.014693,40.71174],[-74.014771,40.711381],[-74.014782,40.711336],[-74.014798,40.711263],[-74.014814,40.71118],[-74.014888,40.711209],[-74.015163,40.711324],[-74.015628,40.711517],[-74.015784,40.711584],[-74.015814,40.71153]]}},{"type":"Feature","properties":{"start":445,"end":293,"count":11,"estimated":true},"geometry":{"type":"LineString","coordinates":[[-73.981403,40.727431],[-73.981823,40.727607],[-73.982157,40.727747],[-73.982274,40.727796],[-73.982379,40.72784],[-73.982722,40.727375],[-73.982761,40.727319],[-73.984659,40.728118],[-73.984693,40.728133],[-73.98473,40.728149],[-73.984867,40.728205],[-73.985002,40.728258],[-73.985986,40.728675],[-73.987065,40.729128],[-73.987116,40.729151],[-73.987233,40.729202],[-73.987361,40.729259],[-73.988257,40.729639],[-73.988697,40.729826],[-73.988733,40.729841],[-73.988819,40.729874],[-73.988918,40.729916],[-73.988999,40.729948],[-73.989291,40.730067],[-73.989345,40.730089],[-73.989482,40.730148],[-73.989611,40.730205],[-73.990059,40.730395],[-73.990342,40.730513],[-73.990379,40.730529],[-73.990425,40.730548],[-73.990491,40.730576],[-73.990631,40.730636],[-73.990684,40.730559],[-73.990629,40.730535],[-73.990711,40.730431],[-73.990658,40.730401],[-73.990755,40.730298],[-73.990759,40.730286]]}},{"type":"Feature","properties":{"start":315,"end":387,"count":11,"estimated":true},"geometry":{"type":"LineString","coordinates":[[-74.006669,40.703575],[-74.006721,40.703623],[-74.006739,40.70364],[-74.006754,40.703654],[-74.006809,40.703708],[-74.006835,40.703729],[-74.006865,40.703746],[-74.006908,40.703759],[-74.006921,40.703763],[-74.006933,40.703766],[-74.006942,40.703769],[-74.006945,40.70377],[-74.006954,40.703772],[-74.006967,40.703776],[-74.007001,40.703797],[-74.006361,40.704218],[-74.006338,40.704231],[-74.006295,40.704253],[-74.00626,40.70427],[-74.006223,40.704291],[-74.006189,40.704313],[-74.005411,40.704807],[-74.005265,40.704908],[-74.004888,40.70515],[-74.004828,40.705187],[-74.004749,40.705233],[-74.004814,40.705286],[-74.004975,40.705408],[-74.005449,40.705767],[-74.005468,40.705777],[-74.005519,40.7058],[-74.005571,40.705818],[-74.005611,40.70584],[-74.005924,40.706078],[-74.006021,40.70615],[-74.006108,40.706216],[-74.006732,40.706691],[-74.006782,40.706735],[-74.006832,40.706776],[-74.007419,40.707217],[-74.007454,40.707242],[-74.007489,40.707287],[-74.007564,40.70739],[-74.007941,40.707892],[-74.007977,40.707946],[-74.00801,40.707995],[-74.008035,40.708029],[-74.008071,40.708082],[-74.008129,40.708161],[-74.008373,40.708454],[-74.008862,40.709019],[-74.008896,40.709059],[-74.008853,40.709102],[-74.008489,40.709471],[-74.008463,40.709498],[-74.008424,40.709537],[-74.008385,40.709577],[-74.00779,40.710179],[-74.007744,40.710223],[-74.007691,40.710274],[-74.007425,40.71055],[-74.007381,40.710588],[-74.007342,40.71062],[-74.007068,40.710807],[-74.00695,40.710892],[-74.006527,40.711197],[-74.006478,40.711231],[-74.006418,40.711274],[-74.005899,40.711651],[-74.005847,40.711688],[-74.005867,40.711708],[-74.005969,40.711804],[-74.006002,40.71184],[-74.006029,40.71188],[-74.006047,40.711916],[-74.006107,40.712031],[-74.006033,40.712047],[-74.005758,40.712113],[-74.005693,40.71213],[-74.005284,40.712266],[-74.005196,40.712298],[-74.005115,40.712331],[-74.005036,40.712367],[-74.004972,40.712402],[-74.004898,40.712443],[-74.004865,40.712465],[-74.004847,40.712476],[-74.004882,40.712504],[-74.004908,40.712524],[-74.004873,40.712548],[-74.004803,40.712603],[-74.004727,40.712671],[-74.004674,40.712719],[-74.004642,40.712752]]}},{"type":"Feature","properties":{"start":474,"end":497,"count":11,"estimated":true},"geometry":{"type":"LineString","coordinates":[[-73.986799,40.745155],[-73.98677,40.745194],[-73.986788,40.745202],[-73.986888,40.745244],[-73.987254,40.744742],[-73.987301,40.744678],[-73.987336,40.74463],[-73.987707,40.744121],[-73.987745,40.744067],[-73.98779,40.744005],[-73.987952,40.743782],[-73.988114,40.743561],[-73.988151,40.743509],[-73.988191,40.743457],[-73.988237,40.743393],[-73.988325,40.743275],[-73.988389,40.74313],[-73.988418,40.743064],[-73.988442,40.74301],[-73.988534,40.742858],[-73.988577,40.742797],[-73.988597,40.742768],[-73.98862,40.742735],[-73.988915,40.742321],[-73.98893,40.742299],[-73.988942,40.742274],[-73.988948,40.742251],[-73.988953,40.742222],[-73.988955,40.7422],[-73.988954,40.74218],[-73.988951,40.742161],[-73.988941,40.742123],[-73.988938,40.742089],[-73.988939,40.742055],[-73.988942,40.742018],[-73.988968,40.741898],[-73.988997,40.74178],[-73.989085,40.741486],[-73.989138,40.741364],[-73.989162,40.741291],[-73.989176,40.741251],[-73.989269,40.740954],[-73.989281,40.740936],[-73.989362,40.740853],[-73.989371,40.740837],[-73.989422,40.740676],[-73.989425,40.740663],[-73.989442,40.740619],[-73.989449,40.7406],[-73.989466,40.740555],[-73.989519,40.740375],[-73.989572,40.740325],[-73.989621,40.740001],[-73.989628,40.739953],[-73.989632,40.739938],[-73.989636,40.739924],[-73.989642,40.739905],[-73.989663,40.739829],[-73.989667,40.739815],[-73.989688,40.739733],[-73.989628,40.739635],[-73.989717,40.739295],[-73.989731,40.739243],[-73.989751,40.739169],[-73.989767,40.739108],[-73.989903,40.738656],[-73.989934,40.738556],[-73.989953,40.738493],[-73.989972,40.738432],[-73.990003,40.738308],[-73.990075,40.738007],[-73.990112,40.737868],[-73.990139,40.737805],[-73.990165,40.737746],[-73.990307,40.737185],[-73.990266,40.737166],[-73.990198,40.737128],[-73.990074,40.737077]]}}]}